start=new Date('2023-02-19T00:00:00.000Z').valueOf();
sats=[{"PERIAPSIS":"538.509","MEAN_MOTION":"15.08828379","MEAN_MOTION_DOT":"0.00011299","ELEMENT_SET_NO":"999","TLE_LINE1":"1 52835U 22062F   23049.27468069  .00011299  00000-0  72712-3 0  9999","OBJECT_TYPE":"PAYLOAD","RA_OF_ASC_NODE":"1.4145","EPHEMERIS_TYPE":"0","PERIOD":"95.438","RCS_SIZE":"LARGE","INCLINATION":"53.2165","FILE":"3807124","OBJECT_NAME":"STARLINK-4080","MEAN_MOTION_DDOT":"0.0000000000000","ARG_OF_PERICENTER":"111.5212","TIME_SYSTEM":"UTC","REF_FRAME":"TEME","APOAPSIS":"541.053","COUNTRY_CODE":"US","SITE":"AFETR","SEMIMAJOR_AXIS":"6917.916","OBJECT_ID":"2022-062F","NORAD_CAT_ID":"52835","TLE_LINE2":"2 52835  53.2165   1.4145 0001839 111.5212 248.5976 15.08828379 37390","LAUNCH_DATE":"2022-06-17","GP_ID":"225925003","BSTAR":"0.00072712000000","MEAN_ANOMALY":"248.5976","DECAY_DATE":null,"ECCENTRICITY":"0.00018390","EPOCH":"2023-02-18T06:35:32.411616","MEAN_ELEMENT_THEORY":"SGP4","CLASSIFICATION_TYPE":"U","REV_AT_EPOCH":"3739","CENTER_NAME":"EARTH"},{"MEAN_MOTION_DOT":"0.00021479","MEAN_MOTION":"15.08837655","PERIAPSIS":"538.573","OBJECT_TYPE":"PAYLOAD","TLE_LINE1":"1 52836U 22062G   23049.27100174  .00021479  00000-0  13636-2 0  9990","ELEMENT_SET_NO":"999","PERIOD":"95.438","EPHEMERIS_TYPE":"0","RA_OF_ASC_NODE":"1.4334","INCLINATION":"53.2149","RCS_SIZE":"LARGE","FILE":"3808397","REF_FRAME":"TEME","TIME_SYSTEM":"UTC","ARG_OF_PERICENTER":"104.1577","MEAN_MOTION_DDOT":"0.0000000000000","OBJECT_NAME":"STARLINK-4043","APOAPSIS":"540.932","SEMIMAJOR_AXIS":"6917.888","SITE":"AFETR","COUNTRY_CODE":"US","LAUNCH_DATE":"2022-06-17","TLE_LINE2":"2 52836  53.2149   1.4334 0001705 104.1577 255.9604 15.08837655 37394","NORAD_CAT_ID":"52836","OBJECT_ID":"2022-062G","BSTAR":"0.00136360000000","GP_ID":"225955649","MEAN_ANOMALY":"255.9604","ECCENTRICITY":"0.00017050","EPOCH":"2023-02-18T06:30:14.550336","DECAY_DATE":null,"MEAN_ELEMENT_THEORY":"SGP4","CENTER_NAME":"EARTH","REV_AT_EPOCH":"3739","CLASSIFICATION_TYPE":"U"},{"TLE_LINE2":"2 52837  53.2164 359.9760 0001829  95.7909 264.3291 15.08796650 37448","NORAD_CAT_ID":"52837","LAUNCH_DATE":"2022-06-17","OBJECT_ID":"2022-062H","SEMIMAJOR_AXIS":"6918.013","SITE":"AFETR","COUNTRY_CODE":"US","MEAN_ELEMENT_THEORY":"SGP4","CENTER_NAME":"EARTH","REV_AT_EPOCH":"3744","CLASSIFICATION_TYPE":"U","MEAN_ANOMALY":"264.3291","GP_ID":"225955678","BSTAR":"0.00205400000000","ECCENTRICITY":"0.00018290","EPOCH":"2023-02-18T14:16:35.267232","DECAY_DATE":null,"OBJECT_TYPE":"PAYLOAD","TLE_LINE1":"1 52837U 22062H   23049.59485263  .00032514  00000-0  20540-2 0  9995","ELEMENT_SET_NO":"999","PERIOD":"95.440","EPHEMERIS_TYPE":"0","RA_OF_ASC_NODE":"359.9760","MEAN_MOTION_DOT":"0.00032514","MEAN_MOTION":"15.08796650","PERIAPSIS":"538.613","TIME_SYSTEM":"UTC","REF_FRAME":"TEME","OBJECT_NAME":"STARLINK-4036","MEAN_MOTION_DDOT":"0.0000000000000","ARG_OF_PERICENTER":"95.7909","APOAPSIS":"541.143","INCLINATION":"53.2164","RCS_SIZE":"LARGE","FILE":"3808399"},{"REV_AT_EPOCH":"130","CENTER_NAME":"EARTH","CLASSIFICATION_TYPE":"U","MEAN_ELEMENT_THEORY":"SGP4","EPOCH":"2023-02-18T14:00:01.000224","ECCENTRICITY":"0.00009750","DECAY_DATE":null,"GP_ID":"225925260","BSTAR":"0.00071783000000","MEAN_ANOMALY":"210.6558","OBJECT_ID":"2022-062J","TLE_LINE2":"2 52838  53.2153   0.0177 0000975  67.0450 210.6558 15.08827635  1301","NORAD_CAT_ID":"52838","LAUNCH_DATE":"2022-06-17","COUNTRY_CODE":"US","SITE":"AFETR","SEMIMAJOR_AXIS":"6917.918","APOAPSIS":"540.458","MEAN_MOTION_DDOT":"0.0000000000000","ARG_OF_PERICENTER":"67.0450","OBJECT_NAME":"STARLINK-4092","REF_FRAME":"TEME","TIME_SYSTEM":"UTC","FILE":"3807124","RCS_SIZE":"LARGE","INCLINATION":"53.2153","RA_OF_ASC_NODE":"0.0177","PERIOD":"95.438","EPHEMERIS_TYPE":"0","OBJECT_TYPE":"PAYLOAD","ELEMENT_SET_NO":"999","TLE_LINE1":"1 52838U 22062J   23049.58334491  .00011151  00000-0  71783-3 0  9991","MEAN_MOTION_DOT":"0.00011151","MEAN_MOTION":"15.08827635","PERIAPSIS":"539.109"},{"OBJECT_ID":"2022-062K","TLE_LINE2":"2 52839  53.2160 358.5274 0001597  91.9895 268.1280 15.08851358 37981","LAUNCH_DATE":"2022-06-17","NORAD_CAT_ID":"52839","SITE":"AFETR","COUNTRY_CODE":"US","SEMIMAJOR_AXIS":"6917.846","CLASSIFICATION_TYPE":"U","REV_AT_EPOCH":"3798","CENTER_NAME":"EARTH","MEAN_ELEMENT_THEORY":"SGP4","DECAY_DATE":null,"EPOCH":"2023-02-18T22:02:53.532960","ECCENTRICITY":"0.00015970","BSTAR":"0.00127570000000","GP_ID":"225957001","MEAN_ANOMALY":"268.1280","RA_OF_ASC_NODE":"358.5274","EPHEMERIS_TYPE":"0","PERIOD":"95.437","TLE_LINE1":"1 52839U 22062K   23049.91867515  .00020079  00000-0  12757-2 0  9991","ELEMENT_SET_NO":"999","OBJECT_TYPE":"PAYLOAD","PERIAPSIS":"538.606","MEAN_MOTION":"15.08851358","MEAN_MOTION_DOT":"0.00020079","APOAPSIS":"540.815","MEAN_MOTION_DDOT":"0.0000000000000","ARG_OF_PERICENTER":"91.9895","OBJECT_NAME":"STARLINK-4048","TIME_SYSTEM":"UTC","REF_FRAME":"TEME","FILE":"3808456","RCS_SIZE":"LARGE","INCLINATION":"53.2160"},{"MEAN_MOTION_DOT":"0.00036371","MEAN_MOTION":"15.08852757","PERIAPSIS":"538.675","RA_OF_ASC_NODE":"359.9948","PERIOD":"95.437","EPHEMERIS_TYPE":"0","OBJECT_TYPE":"PAYLOAD","ELEMENT_SET_NO":"999","TLE_LINE1":"1 52840U 22062L   23049.59116818  .00036371  00000-0  22908-2 0  9991","FILE":"3808398","RCS_SIZE":"LARGE","INCLINATION":"53.2155","APOAPSIS":"540.738","OBJECT_NAME":"STARLINK-4049","MEAN_MOTION_DDOT":"0.0000000000000","ARG_OF_PERICENTER":"68.8298","REF_FRAME":"TEME","TIME_SYSTEM":"UTC","COUNTRY_CODE":"US","SITE":"AFETR","SEMIMAJOR_AXIS":"6917.841","OBJECT_ID":"2022-062L","TLE_LINE2":"2 52840  53.2155 359.9948 0001491  68.8298 291.2853 15.08852757 37935","LAUNCH_DATE":"2022-06-17","NORAD_CAT_ID":"52840","ECCENTRICITY":"0.00014910","EPOCH":"2023-02-18T14:11:16.930752","DECAY_DATE":null,"GP_ID":"225955784","MEAN_ANOMALY":"291.2853","BSTAR":"0.00229080000000","REV_AT_EPOCH":"3793","CENTER_NAME":"EARTH","CLASSIFICATION_TYPE":"U","MEAN_ELEMENT_THEORY":"SGP4"},{"MEAN_MOTION":"15.08833871","PERIAPSIS":"538.812","MEAN_MOTION_DOT":"0.00020194","ELEMENT_SET_NO":"999","TLE_LINE1":"1 52841U 22062M   23049.57644524  .00020194  00000-0  12835-2 0  9994","OBJECT_TYPE":"PAYLOAD","RA_OF_ASC_NODE":"0.0652","EPHEMERIS_TYPE":"0","PERIOD":"95.438","RCS_SIZE":"LARGE","INCLINATION":"53.2168","FILE":"3808398","MEAN_MOTION_DDOT":"0.0000000000000","ARG_OF_PERICENTER":"81.2514","OBJECT_NAME":"STARLINK-4065","REF_FRAME":"TEME","TIME_SYSTEM":"UTC","APOAPSIS":"540.717","SITE":"AFETR","COUNTRY_CODE":"US","SEMIMAJOR_AXIS":"6917.899","OBJECT_ID":"2022-062M","TLE_LINE2":"2 52841  53.2168   0.0652 0001377  81.2514 278.8634 15.08833871 37933","NORAD_CAT_ID":"52841","LAUNCH_DATE":"2022-06-17","BSTAR":"0.00128350000000","GP_ID":"225955658","MEAN_ANOMALY":"278.8634","DECAY_DATE":null,"ECCENTRICITY":"0.00013770","EPOCH":"2023-02-18T13:50:04.868736","MEAN_ELEMENT_THEORY":"SGP4","CLASSIFICATION_TYPE":"U","REV_AT_EPOCH":"3793","CENTER_NAME":"EARTH"},{"FILE":"3807124","INCLINATION":"53.2146","RCS_SIZE":"LARGE","APOAPSIS":"540.565","TIME_SYSTEM":"UTC","REF_FRAME":"TEME","ARG_OF_PERICENTER":"87.3782","MEAN_MOTION_DDOT":"0.0000000000000","OBJECT_NAME":"STARLINK-4046","MEAN_MOTION_DOT":"0.00010655","PERIAPSIS":"539.074","MEAN_MOTION":"15.08815765","PERIOD":"95.439","EPHEMERIS_TYPE":"0","RA_OF_ASC_NODE":"2.0487","OBJECT_TYPE":"PAYLOAD","ELEMENT_SET_NO":"999","TLE_LINE1":"1 52842U 22062N   23049.13579645  .00010655  00000-0  68698-3 0  9998","EPOCH":"2023-02-18T03:15:32.813280","ECCENTRICITY":"0.00010770","DECAY_DATE":null,"BSTAR":"0.00068698000000","GP_ID":"225924767","MEAN_ANOMALY":"272.7333","CENTER_NAME":"EARTH","REV_AT_EPOCH":"3737","CLASSIFICATION_TYPE":"U","MEAN_ELEMENT_THEORY":"SGP4","SEMIMAJOR_AXIS":"6917.954","SITE":"AFETR","COUNTRY_CODE":"US","TLE_LINE2":"2 52842  53.2146   2.0487 0001077  87.3782 272.7333 15.08815765 37378","NORAD_CAT_ID":"52842","LAUNCH_DATE":"2022-06-17","OBJECT_ID":"2022-062N"},{"OBJECT_TYPE":"PAYLOAD","ELEMENT_SET_NO":"999","TLE_LINE1":"1 52843U 22062P   23049.56907642  .00020158  00000-0  12804-2 0  9994","RA_OF_ASC_NODE":"0.0969","PERIOD":"95.436","EPHEMERIS_TYPE":"0","MEAN_MOTION_DOT":"0.00020158","PERIAPSIS":"538.889","MEAN_MOTION":"15.08857956","OBJECT_NAME":"STARLINK-4188","MEAN_MOTION_DDOT":"0.0000000000000","ARG_OF_PERICENTER":"111.3485","TIME_SYSTEM":"UTC","REF_FRAME":"TEME","APOAPSIS":"540.492","RCS_SIZE":"LARGE","INCLINATION":"53.2163","FILE":"3807124","OBJECT_ID":"2022-062P","TLE_LINE2":"2 52843  53.2163   0.0969 0001159 111.3485 248.7631 15.08857956 37440","NORAD_CAT_ID":"52843","LAUNCH_DATE":"2022-06-17","SITE":"AFETR","COUNTRY_CODE":"US","SEMIMAJOR_AXIS":"6917.826","MEAN_ELEMENT_THEORY":"SGP4","CENTER_NAME":"EARTH","REV_AT_EPOCH":"3744","CLASSIFICATION_TYPE":"U","GP_ID":"225925004","MEAN_ANOMALY":"248.7631","BSTAR":"0.00128040000000","EPOCH":"2023-02-18T13:39:28.202688","ECCENTRICITY":"0.00011590","DECAY_DATE":null},{"MEAN_MOTION_DOT":"0.00004588","PERIAPSIS":"538.690","MEAN_MOTION":"15.08827954","OBJECT_TYPE":"PAYLOAD","TLE_LINE1":"1 52844U 22062Q   23049.65003714  .00004588  00000-0  30624-3 0  9992","ELEMENT_SET_NO":"999","RA_OF_ASC_NODE":"359.7340","PERIOD":"95.438","EPHEMERIS_TYPE":"0","RCS_SIZE":"LARGE","INCLINATION":"53.2171","FILE":"3808398","ARG_OF_PERICENTER":"101.9851","MEAN_MOTION_DDOT":"0.0000000000000","OBJECT_NAME":"STARLINK-4208","TIME_SYSTEM":"UTC","REF_FRAME":"TEME","APOAPSIS":"540.875","COUNTRY_CODE":"US","SITE":"AFETR","SEMIMAJOR_AXIS":"6917.917","OBJECT_ID":"2022-062Q","TLE_LINE2":"2 52844  53.2171 359.7340 0001579 101.9851 258.1318 15.08827954 37942","NORAD_CAT_ID":"52844","LAUNCH_DATE":"2022-06-17","BSTAR":"0.00030624000000","GP_ID":"225955660","MEAN_ANOMALY":"258.1318","ECCENTRICITY":"0.00015790","EPOCH":"2023-02-18T15:36:03.208896","DECAY_DATE":null,"MEAN_ELEMENT_THEORY":"SGP4","REV_AT_EPOCH":"3794","CENTER_NAME":"EARTH","CLASSIFICATION_TYPE":"U"}];
